STARLINK-30510          
1 57981U 23151T   26067.79743887  .00000089  00000+0  21665-4 0  9996
2 57981  43.0060 356.8477 0001276 250.8138 109.2566 15.02539259135445
PICO-02A021             
1 60538U 24149BY  26068.15390193  .00008488  00000+0  64833-3 0  9999
2 60538  97.6823 147.9080 0004195   9.5557 350.5747 15.02201963 84718
